*******************************************************************************
Ephemeris / WWW_USER Mon Mar 10 08:40:37 2025 Pasadena, USA      / Horizons    
*******************************************************************************
Target body name: ASASSN (C/2017 O1)              {source: JPL#21}
Center body name: Earth (399)                     {source: DE441}
Center-site name: Mauna Kea
*******************************************************************************
Start time      : A.D. 2018-Oct-27 04:00:00.0000 UT      
Stop  time      : A.D. 2018-Oct-27 16:11:00.0000 UT      
Step-size       : 1 minutes
*******************************************************************************
Target pole/equ : undefined
Target radii    : undefined                                                    
Center geodetic : 204.5278, 19.8260847, 4.21024   {E-lon(deg),Lat(deg),Alt(km)}
Center cylindric: 204.5278, 6006.35451, 2151.0229 {E-lon(deg),Dxy(km),Dz(km)}
Center pole/equ : ITRF93                          {East-longitude positive}
Center radii    : 6378.137, 6378.137, 6356.752 km {Equator_a, b, pole_c}       
Target primary  : Sun
Vis. interferer : MOON (R_eq= 1737.400) km        {source: DE441}
Rel. light bend : Sun                             {source: DE441}
Rel. lght bnd GM: 1.3271E+11 km^3/s^2                                          
Small-body perts: Yes                             {source: SB441-N16}
Atmos refraction: NO (AIRLESS)
RA format       : HMS
Time format     : CAL 
Calendar mode   : Mixed Julian/Gregorian
RTS-only print  : NO       
EOP file        : eop.250307.p250603                                           
EOP coverage    : DATA-BASED 1962-JAN-20 TO 2025-MAR-07. PREDICTS-> 2025-JUN-02
Units conversion: 1 au= 149597870.700 km, c= 299792.458 km/s, 1 day= 86400.0 s 
Table cut-offs 1: Elevation (-90.0deg=NO ),Airmass (>38.000=NO), Daylight (YES)
Table cut-offs 2: Solar elongation (  0.0,180.0=NO ),Local Hour Angle( 0.0=NO )
Table cut-offs 3: RA/DEC angular rate (     0.0=NO )                           
*******************************************************************************
Initial IAU76/J2000 heliocentric ecliptic osculating elements (au, days, deg.):
  EPOCH=  2458039.5 ! 2017-Oct-13.0000000 (TDB)    RMSW= n.a.                  
   EC= .9964254882304144   QR= 1.498687032290766   TP= 2458041.2851755521      
   OM= 25.80948799039273   W= 20.90785287564418    IN= 39.84841297991522       
  Equivalent ICRF heliocentric cartesian coordinates (au, au/d):
   X= 1.103880574170232E+00  Y= 7.544591652134763E-01  Z= 6.774428678789283E-01
  VX=-1.240653547490291E-02 VY= 4.322571932715848E-03 VZ= 1.488380440184248E-02
Comet physical (GM= km^3/s^2; RAD= km):                                        
   GM= n.a.                RAD= n.a.                                           
   M1=  12.4     M2=  n.a.     k1=  8.75   k2= n.a.     PHCOF= n.a.            
*******************************************************************************
 Date__(UT)__HR:MN     R.A._________(ICRF)_________DEC
******************************************************
$$SOE
 2018-Oct-27 12:20  m  12 21 16.594182 +24 42 51.58524
 2018-Oct-27 12:21  m  12 21 16.626515 +24 42 51.43134
 2018-Oct-27 12:22  m  12 21 16.658845 +24 42 51.27744
 2018-Oct-27 12:23  m  12 21 16.691174 +24 42 51.12356
 2018-Oct-27 12:24  m  12 21 16.723500 +24 42 50.96969
 2018-Oct-27 12:25  m  12 21 16.755824 +24 42 50.81582
 2018-Oct-27 12:26  m  12 21 16.788146 +24 42 50.66196
 2018-Oct-27 12:27  m  12 21 16.820466 +24 42 50.50812
 2018-Oct-27 12:28  m  12 21 16.852784 +24 42 50.35428
 2018-Oct-27 12:29  m  12 21 16.885100 +24 42 50.20045
 2018-Oct-27 12:30  m  12 21 16.917413 +24 42 50.04662
 2018-Oct-27 12:31  m  12 21 16.949725 +24 42 49.89281
 2018-Oct-27 12:32  m  12 21 16.982034 +24 42 49.73900
 2018-Oct-27 12:33  m  12 21 17.014341 +24 42 49.58521
 2018-Oct-27 12:34  m  12 21 17.046647 +24 42 49.43142
 2018-Oct-27 12:35  m  12 21 17.078950 +24 42 49.27764
 2018-Oct-27 12:36  m  12 21 17.111250 +24 42 49.12386
 2018-Oct-27 12:37  m  12 21 17.143549 +24 42 48.97010
 2018-Oct-27 12:38  m  12 21 17.175846 +24 42 48.81634
 2018-Oct-27 12:39  m  12 21 17.208140 +24 42 48.66259
 2018-Oct-27 12:40  m  12 21 17.240432 +24 42 48.50885
 2018-Oct-27 12:41  m  12 21 17.272722 +24 42 48.35512
 2018-Oct-27 12:42  m  12 21 17.305010 +24 42 48.20139
 2018-Oct-27 12:43  m  12 21 17.337296 +24 42 48.04768
 2018-Oct-27 12:44  m  12 21 17.369579 +24 42 47.89397
 2018-Oct-27 12:45  m  12 21 17.401861 +24 42 47.74027
 2018-Oct-27 12:46  m  12 21 17.434140 +24 42 47.58657
 2018-Oct-27 12:47  m  12 21 17.466417 +24 42 47.43289
 2018-Oct-27 12:48  m  12 21 17.498692 +24 42 47.27921
 2018-Oct-27 12:49  m  12 21 17.530964 +24 42 47.12554
 2018-Oct-27 12:50  m  12 21 17.563235 +24 42 46.97188
 2018-Oct-27 12:51  m  12 21 17.595503 +24 42 46.81822
 2018-Oct-27 12:52  m  12 21 17.627769 +24 42 46.66457
 2018-Oct-27 12:53  m  12 21 17.660033 +24 42 46.51093
 2018-Oct-27 12:54  m  12 21 17.692294 +24 42 46.35730
 2018-Oct-27 12:55  m  12 21 17.724553 +24 42 46.20367
 2018-Oct-27 12:56  m  12 21 17.756811 +24 42 46.05005
 2018-Oct-27 12:57  m  12 21 17.789065 +24 42 45.89644
 2018-Oct-27 12:58  m  12 21 17.821318 +24 42 45.74283
 2018-Oct-27 12:59  m  12 21 17.853569 +24 42 45.58924
 2018-Oct-27 13:00  m  12 21 17.885817 +24 42 45.43565
 2018-Oct-27 13:01  m  12 21 17.918063 +24 42 45.28206
 2018-Oct-27 13:02  m  12 21 17.950306 +24 42 45.12848
 2018-Oct-27 13:03  m  12 21 17.982548 +24 42 44.97491
 2018-Oct-27 13:04  m  12 21 18.014787 +24 42 44.82135
 2018-Oct-27 13:05  m  12 21 18.047024 +24 42 44.66779
 2018-Oct-27 13:06  m  12 21 18.079259 +24 42 44.51424
 2018-Oct-27 13:07  m  12 21 18.111491 +24 42 44.36070
 2018-Oct-27 13:08  m  12 21 18.143722 +24 42 44.20716
 2018-Oct-27 13:09  m  12 21 18.175949 +24 42 44.05363
 2018-Oct-27 13:10  m  12 21 18.208175 +24 42 43.90011
 2018-Oct-27 13:11  m  12 21 18.240399 +24 42 43.74659
 2018-Oct-27 13:12  m  12 21 18.272620 +24 42 43.59308
 2018-Oct-27 13:13  m  12 21 18.304839 +24 42 43.43958
 2018-Oct-27 13:14  m  12 21 18.337055 +24 42 43.28608
 2018-Oct-27 13:15  m  12 21 18.369269 +24 42 43.13259
 2018-Oct-27 13:16  m  12 21 18.401481 +24 42 42.97910
 2018-Oct-27 13:17  m  12 21 18.433691 +24 42 42.82562
 2018-Oct-27 13:18  m  12 21 18.465899 +24 42 42.67215
 2018-Oct-27 13:19  m  12 21 18.498104 +24 42 42.51868
 2018-Oct-27 13:20  m  12 21 18.530307 +24 42 42.36522
 2018-Oct-27 13:21  m  12 21 18.562507 +24 42 42.21176
 2018-Oct-27 13:22  m  12 21 18.594705 +24 42 42.05831
 2018-Oct-27 13:23  m  12 21 18.626901 +24 42 41.90487
 2018-Oct-27 13:24  m  12 21 18.659095 +24 42 41.75143
 2018-Oct-27 13:25  m  12 21 18.691286 +24 42 41.59800
 2018-Oct-27 13:26  m  12 21 18.723475 +24 42 41.44457
 2018-Oct-27 13:27  m  12 21 18.755662 +24 42 41.29115
 2018-Oct-27 13:28  m  12 21 18.787847 +24 42 41.13773
 2018-Oct-27 13:29  m  12 21 18.820029 +24 42 40.98432
 2018-Oct-27 13:30  m  12 21 18.852209 +24 42 40.83092
 2018-Oct-27 13:31  r  12 21 18.884386 +24 42 40.67752
 2018-Oct-27 13:32  m  12 21 18.916561 +24 42 40.52413
 2018-Oct-27 13:33  m  12 21 18.948734 +24 42 40.37074
 2018-Oct-27 13:34  m  12 21 18.980904 +24 42 40.21735
 2018-Oct-27 13:35  m  12 21 19.013073 +24 42 40.06397
 2018-Oct-27 13:36  m  12 21 19.045239 +24 42 39.91060
 2018-Oct-27 13:37  m  12 21 19.077402 +24 42 39.75723
 2018-Oct-27 13:38  m  12 21 19.109563 +24 42 39.60387
 2018-Oct-27 13:39  m  12 21 19.141722 +24 42 39.45051
 2018-Oct-27 13:40  m  12 21 19.173879 +24 42 39.29716
 2018-Oct-27 13:41  m  12 21 19.206033 +24 42 39.14381
 2018-Oct-27 13:42  m  12 21 19.238185 +24 42 38.99047
 2018-Oct-27 13:43  m  12 21 19.270334 +24 42 38.83713
 2018-Oct-27 13:44  m  12 21 19.302481 +24 42 38.68379
 2018-Oct-27 13:45  m  12 21 19.334626 +24 42 38.53047
 2018-Oct-27 13:46  m  12 21 19.366769 +24 42 38.37714
 2018-Oct-27 13:47  m  12 21 19.398909 +24 42 38.22382
 2018-Oct-27 13:48  m  12 21 19.431046 +24 42 38.07050
 2018-Oct-27 13:49  m  12 21 19.463182 +24 42 37.91719
 2018-Oct-27 13:50  m  12 21 19.495315 +24 42 37.76389
 2018-Oct-27 13:51  m  12 21 19.527446 +24 42 37.61058
 2018-Oct-27 13:52  m  12 21 19.559574 +24 42 37.45729
 2018-Oct-27 13:53  m  12 21 19.591700 +24 42 37.30399
 2018-Oct-27 13:54  m  12 21 19.623824 +24 42 37.15070
 2018-Oct-27 13:55  m  12 21 19.655945 +24 42 36.99742
 2018-Oct-27 13:56  m  12 21 19.688064 +24 42 36.84413
 2018-Oct-27 13:57  m  12 21 19.720180 +24 42 36.69086
 2018-Oct-27 13:58  m  12 21 19.752295 +24 42 36.53758
 2018-Oct-27 13:59  m  12 21 19.784406 +24 42 36.38431
 2018-Oct-27 14:00  m  12 21 19.816516 +24 42 36.23105
 2018-Oct-27 14:01  m  12 21 19.848623 +24 42 36.07778
 2018-Oct-27 14:02  m  12 21 19.880728 +24 42 35.92453
 2018-Oct-27 14:03  m  12 21 19.912830 +24 42 35.77127
 2018-Oct-27 14:04  m  12 21 19.944930 +24 42 35.61802
 2018-Oct-27 14:05  m  12 21 19.977028 +24 42 35.46477
 2018-Oct-27 14:06  m  12 21 20.009123 +24 42 35.31153
 2018-Oct-27 14:07  m  12 21 20.041216 +24 42 35.15829
 2018-Oct-27 14:08  m  12 21 20.073307 +24 42 35.00505
 2018-Oct-27 14:09  m  12 21 20.105395 +24 42 34.85182
 2018-Oct-27 14:10  m  12 21 20.137481 +24 42 34.69859
 2018-Oct-27 14:11  m  12 21 20.169564 +24 42 34.54536
 2018-Oct-27 14:12  m  12 21 20.201645 +24 42 34.39214
 2018-Oct-27 14:13  m  12 21 20.233724 +24 42 34.23892
 2018-Oct-27 14:14  m  12 21 20.265800 +24 42 34.08570
 2018-Oct-27 14:15  m  12 21 20.297874 +24 42 33.93248
 2018-Oct-27 14:16  m  12 21 20.329946 +24 42 33.77927
 2018-Oct-27 14:17  m  12 21 20.362015 +24 42 33.62606
 2018-Oct-27 14:18  m  12 21 20.394082 +24 42 33.47286
 2018-Oct-27 14:19  m  12 21 20.426147 +24 42 33.31965
 2018-Oct-27 14:20  m  12 21 20.458209 +24 42 33.16645
 2018-Oct-27 14:21  m  12 21 20.490268 +24 42 33.01326
 2018-Oct-27 14:22  m  12 21 20.522326 +24 42 32.86006
 2018-Oct-27 14:23  m  12 21 20.554381 +24 42 32.70687
 2018-Oct-27 14:24  m  12 21 20.586433 +24 42 32.55368
